SENTINEL-6              
1 46984U 20086A   24210.45575469 -.00000055  00000+0  25365-4 0  9996
2 46984  66.0417 125.5572 0007854 269.9988  90.0127 12.80930075172238
